[{"OBJECT_NAME":"FENGYUN 1C DEB","OBJECT_ID":"1999-025AHJ","EPOCH":"2026-04-26T07:06:15.247584","MEAN_MOTION":14.96749901,"ECCENTRICITY":0.0124344,"INCLINATION":98.7834,"RA_OF_ASC_NODE":43.3271,"ARG_OF_PERICENTER":21.5931,"MEAN_ANOMALY":339.0466,"EPHEMERIS_TYPE":0,"CLASSIFICATION_TYPE":"U","NORAD_CAT_ID":30496,"ELEMENT_SET_NO":999,"REV_AT_EPOCH":3155,"BSTAR":0.00082677,"MEAN_MOTION_DOT":0.00010998,"MEAN_MOTION_DDOT":0},{"OBJECT_NAME":"FENGYUN 1C DEB","OBJECT_ID":"1999-025AHL","EPOCH":"2026-04-25T16:59:51.624960","MEAN_MOTION":14.06831599,"ECCENTRICITY":0.01042341,"INCLINATION":99.2272,"RA_OF_ASC_NODE":174.5382,"ARG_OF_PERICENTER":144.4038,"MEAN_ANOMALY":341.105,"EPHEMERIS_TYPE":0,"CLASSIFICATION_TYPE":"U","NORAD_CAT_ID":30498,"ELEMENT_SET_NO":999,"REV_AT_EPOCH":97652,"BSTAR":0.0010959585,"MEAN_MOTION_DOT":1.871e-5,"MEAN_MOTION_DDOT":0},{"OBJECT_NAME":"FENGYUN 1C DEB","OBJECT_ID":"1999-025AHN","EPOCH":"2026-04-25T05:19:21.183744","MEAN_MOTION":14.26819223,"ECCENTRICITY":0.0064126,"INCLINATION":99.067,"RA_OF_ASC_NODE":216.3648,"ARG_OF_PERICENTER":92.4497,"MEAN_ANOMALY":328.0865,"EPHEMERIS_TYPE":0,"CLASSIFICATION_TYPE":"U","NORAD_CAT_ID":30500,"ELEMENT_SET_NO":999,"REV_AT_EPOCH":98584,"BSTAR":0.0019961,"MEAN_MOTION_DOT":4.902e-5,"MEAN_MOTION_DDOT":0},{"OBJECT_NAME":"FENGYUN 1C DEB","OBJECT_ID":"1999-025AHP","EPOCH":"2026-04-26T10:59:30.558048","MEAN_MOTION":14.26357061,"ECCENTRICITY":0.0041324,"INCLINATION":99.0908,"RA_OF_ASC_NODE":117.2072,"ARG_OF_PERICENTER":172.8145,"MEAN_ANOMALY":342.9402,"EPHEMERIS_TYPE":0,"CLASSIFICATION_TYPE":"U","NORAD_CAT_ID":30501,"ELEMENT_SET_NO":999,"REV_AT_EPOCH":98839,"BSTAR":0.0013702,"MEAN_MOTION_DOT":3.276e-5,"MEAN_MOTION_DDOT":0},{"OBJECT_NAME":"FENGYUN 1C DEB","OBJECT_ID":"1999-025AHR","EPOCH":"2026-04-26T08:22:44.577984","MEAN_MOTION":14.16277652,"ECCENTRICITY":0.0007922,"INCLINATION":99.1955,"RA_OF_ASC_NODE":329.3182,"ARG_OF_PERICENTER":243.9883,"MEAN_ANOMALY":289.3719,"EPHEMERIS_TYPE":0,"CLASSIFICATION_TYPE":"U","NORAD_CAT_ID":30503,"ELEMENT_SET_NO":999,"REV_AT_EPOCH":99251,"BSTAR":0.0002154,"MEAN_MOTION_DOT":3.8e-6,"MEAN_MOTION_DDOT":0},{"OBJECT_NAME":"FENGYUN 1C DEB","OBJECT_ID":"1999-025AHS","EPOCH":"2026-04-24T08:52:51.722976","MEAN_MOTION":14.20817544,"ECCENTRICITY":0.011168,"INCLINATION":99.0029,"RA_OF_ASC_NODE":168.1996,"ARG_OF_PERICENTER":197.5049,"MEAN_ANOMALY":162.2264,"EPHEMERIS_TYPE":0,"CLASSIFICATION_TYPE":"U","NORAD_CAT_ID":30504,"ELEMENT_SET_NO":999,"REV_AT_EPOCH":99277,"BSTAR":0.00013767663,"MEAN_MOTION_DOT":2.7e-6,"MEAN_MOTION_DDOT":0},{"OBJECT_NAME":"FENGYUN 1C DEB","OBJECT_ID":"1999-025AHT","EPOCH":"2026-04-25T18:57:50.276736","MEAN_MOTION":14.22958999,"ECCENTRICITY":0.00638142,"INCLINATION":98.9147,"RA_OF_ASC_NODE":202.0832,"ARG_OF_PERICENTER":215.3062,"MEAN_ANOMALY":274.5433,"EPHEMERIS_TYPE":0,"CLASSIFICATION_TYPE":"U","NORAD_CAT_ID":30505,"ELEMENT_SET_NO":999,"REV_AT_EPOCH":98829,"BSTAR":0.0012291188,"MEAN_MOTION_DOT":2.779e-5,"MEAN_MOTION_DDOT":0},{"OBJECT_NAME":"FENGYUN 1C DEB","OBJECT_ID":"1999-025AHU","EPOCH":"2026-04-26T07:03:24.902208","MEAN_MOTION":14.08806891,"ECCENTRICITY":0.0069555,"INCLINATION":98.7576,"RA_OF_ASC_NODE":122.54,"ARG_OF_PERICENTER":328.1305,"MEAN_ANOMALY":45.3365,"EPHEMERIS_TYPE":0,"CLASSIFICATION_TYPE":"U","NORAD_CAT_ID":30506,"ELEMENT_SET_NO":999,"REV_AT_EPOCH":98716,"BSTAR":0.0002995,"MEAN_MOTION_DOT":4.85e-6,"MEAN_MOTION_DDOT":0},{"OBJECT_NAME":"FENGYUN 1C DEB","OBJECT_ID":"1999-025AHV","EPOCH":"2026-04-26T11:30:09.075744","MEAN_MOTION":14.13741954,"ECCENTRICITY":0.0128765,"INCLINATION":98.998,"RA_OF_ASC_NODE":186.9006,"ARG_OF_PERICENTER":155.1046,"MEAN_ANOMALY":331.2985,"EPHEMERIS_TYPE":0,"CLASSIFICATION_TYPE":"U","NORAD_CAT_ID":30507,"ELEMENT_SET_NO":999,"REV_AT_EPOCH":98401,"BSTAR":0.0010343,"MEAN_MOTION_DOT":2.073e-5,"MEAN_MOTION_DDOT":0},{"OBJECT_NAME":"FENGYUN 1C DEB","OBJECT_ID":"1999-025AHX","EPOCH":"2026-04-26T09:32:49.265952","MEAN_MOTION":14.08522113,"ECCENTRICITY":0.0102849,"INCLINATION":98.4617,"RA_OF_ASC_NODE":344.9497,"ARG_OF_PERICENTER":41.3126,"MEAN_ANOMALY":138.4444,"EPHEMERIS_TYPE":0,"CLASSIFICATION_TYPE":"U","NORAD_CAT_ID":30509,"ELEMENT_SET_NO":999,"REV_AT_EPOCH":97617,"BSTAR":0.0013306,"MEAN_MOTION_DOT":2.358e-5,"MEAN_MOTION_DDOT":0},{"OBJECT_NAME":"FENGYUN 1C DEB","OBJECT_ID":"1999-025AHY","EPOCH":"2026-04-26T12:47:55.722048","MEAN_MOTION":14.13565914,"ECCENTRICITY":0.0079451,"INCLINATION":99.2363,"RA_OF_ASC_NODE":137.9451,"ARG_OF_PERICENTER":147.5889,"MEAN_ANOMALY":5.6467,"EPHEMERIS_TYPE":0,"CLASSIFICATION_TYPE":"U","NORAD_CAT_ID":30510,"ELEMENT_SET_NO":999,"REV_AT_EPOCH":98478,"BSTAR":0.0011282,"MEAN_MOTION_DOT":2.145e-5,"MEAN_MOTION_DDOT":0},{"OBJECT_NAME":"FENGYUN 1C DEB","OBJECT_ID":"1999-025AJC","EPOCH":"2026-04-25T19:02:09.971808","MEAN_MOTION":14.34883125,"ECCENTRICITY":0.01732963,"INCLINATION":98.3993,"RA_OF_ASC_NODE":140.8195,"ARG_OF_PERICENTER":55.219,"MEAN_ANOMALY":306.5169,"EPHEMERIS_TYPE":0,"CLASSIFICATION_TYPE":"U","NORAD_CAT_ID":30514,"ELEMENT_SET_NO":999,"REV_AT_EPOCH":145,"BSTAR":0.00051030215,"MEAN_MOTION_DOT":1.672e-5,"MEAN_MOTION_DDOT":0},{"OBJECT_NAME":"FENGYUN 1C DEB","OBJECT_ID":"1999-025AJD","EPOCH":"2026-04-25T14:00:37.317600","MEAN_MOTION":13.64311316,"ECCENTRICITY":0.04957596,"INCLINATION":98.4968,"RA_OF_ASC_NODE":340.6288,"ARG_OF_PERICENTER":79.7784,"MEAN_ANOMALY":337.4816,"EPHEMERIS_TYPE":0,"CLASSIFICATION_TYPE":"U","NORAD_CAT_ID":30515,"ELEMENT_SET_NO":999,"REV_AT_EPOCH":95155,"BSTAR":0.00075853962,"MEAN_MOTION_DOT":1.374e-5,"MEAN_MOTION_DDOT":0},{"OBJECT_NAME":"FENGYUN 1C DEB","OBJECT_ID":"1999-025AJE","EPOCH":"2026-04-26T06:03:31.007808","MEAN_MOTION":14.43551263,"ECCENTRICITY":0.0007736,"INCLINATION":98.8567,"RA_OF_ASC_NODE":230.3887,"ARG_OF_PERICENTER":243.6669,"MEAN_ANOMALY":145.4149,"EPHEMERIS_TYPE":0,"CLASSIFICATION_TYPE":"U","NORAD_CAT_ID":30516,"ELEMENT_SET_NO":999,"REV_AT_EPOCH":99654,"BSTAR":0.0020734,"MEAN_MOTION_DOT":6.983e-5,"MEAN_MOTION_DDOT":0},{"OBJECT_NAME":"FENGYUN 1C DEB","OBJECT_ID":"1999-025AJJ","EPOCH":"2026-04-26T12:10:21.697248","MEAN_MOTION":15.2092826,"ECCENTRICITY":0.0060224,"INCLINATION":98.7203,"RA_OF_ASC_NODE":314.6121,"ARG_OF_PERICENTER":7.9766,"MEAN_ANOMALY":352.2408,"EPHEMERIS_TYPE":0,"CLASSIFICATION_TYPE":"U","NORAD_CAT_ID":30520,"ELEMENT_SET_NO":999,"REV_AT_EPOCH":3085,"BSTAR":0.0010619,"MEAN_MOTION_DOT":0.00024655,"MEAN_MOTION_DDOT":0},{"OBJECT_NAME":"FENGYUN 1C DEB","OBJECT_ID":"1999-025AJK","EPOCH":"2026-04-26T08:04:08.670144","MEAN_MOTION":14.59246079,"ECCENTRICITY":0.0134119,"INCLINATION":99.0067,"RA_OF_ASC_NODE":267.7158,"ARG_OF_PERICENTER":193.8228,"MEAN_ANOMALY":165.9283,"EPHEMERIS_TYPE":0,"CLASSIFICATION_TYPE":"U","NORAD_CAT_ID":30521,"ELEMENT_SET_NO":999,"REV_AT_EPOCH":1542,"BSTAR":0.000779,"MEAN_MOTION_DOT":4.108e-5,"MEAN_MOTION_DDOT":0}]
