FENGYUN 1C DEB          
1 30496U 99025AHJ 26116.29600981  .00010998  00000+0  82677-3 0  9997
2 30496  98.7834  43.3271 0124344  21.5931 339.0466 14.96749901 31557
FENGYUN 1C DEB          
1 30498U 99025AHL 26115.70823640  .00001871  00000+0  10960-2 0  9998
2 30498  99.2272 174.5382 0104234 144.4038 341.1050 14.06831599976524
FENGYUN 1C DEB          
1 30500U 99025AHN 26115.22177296  .00004902  00000+0  19961-2 0  9996
2 30500  99.0670 216.3648 0064126  92.4497 328.0865 14.26819223985849
FENGYUN 1C DEB          
1 30501U 99025AHP 26116.45799257  .00003276  00000+0  13702-2 0  9990
2 30501  99.0908 117.2072 0041324 172.8145 342.9402 14.26357061988394
FENGYUN 1C DEB          
1 30503U 99025AHR 26116.34912706  .00000380  00000+0  21540-3 0  9999
2 30503  99.1955 329.3182 0007922 243.9883 289.3719 14.16277652992512
FENGYUN 1C DEB          
1 30504U 99025AHS 26114.37004309  .00000270  00000+0  13768-3 0  9993
2 30504  99.0029 168.1996 0111680 197.5049 162.2264 14.20817544992778
FENGYUN 1C DEB          
1 30505U 99025AHT 26115.79016524  .00002779  00000+0  12291-2 0  9998
2 30505  98.9147 202.0832 0063814 215.3062 274.5433 14.22958999988293
FENGYUN 1C DEB          
1 30506U 99025AHU 26116.29403822  .00000485  00000+0  29950-3 0  9999
2 30506  98.7576 122.5400 0069555 328.1305  45.3365 14.08806891987166
FENGYUN 1C DEB          
1 30507U 99025AHV 26116.47927171  .00002073  00000+0  10343-2 0  9998
2 30507  98.9980 186.9006 0128765 155.1046 331.2985 14.13741954984013
FENGYUN 1C DEB          
1 30509U 99025AHX 26116.39779243  .00002358  00000+0  13306-2 0  9994
2 30509  98.4617 344.9497 0102849  41.3126 138.4444 14.08522113976170
FENGYUN 1C DEB          
1 30510U 99025AHY 26116.53328382  .00002145  00000+0  11282-2 0  9991
2 30510  99.2363 137.9451 0079451 147.5889   5.6467 14.13565914984784
FENGYUN 1C DEB          
1 30514U 99025AJC 26115.79317097  .00001672  00000+0  51030-3 0  9993
2 30514  98.3993 140.8195 0173296  55.2190 306.5169 14.34883125  1453
FENGYUN 1C DEB          
1 30515U 99025AJD 26115.58376525  .00001374  00000+0  75854-3 0  9991
2 30515  98.4968 340.6288 0495759  79.7784 337.4816 13.64311316951558
FENGYUN 1C DEB          
1 30516U 99025AJE 26116.25244222  .00006983  00000+0  20734-2 0  9992
2 30516  98.8567 230.3887 0007736 243.6669 145.4149 14.43551263996545
FENGYUN 1C DEB          
1 30520U 99025AJJ 26116.50719557  .00024655  00000+0  10619-2 0  9990
2 30520  98.7203 314.6121 0060224   7.9766 352.2408 15.20928260 30853
FENGYUN 1C DEB          
1 30521U 99025AJK 26116.33621146  .00004108  00000+0  77900-3 0  9996
2 30521  99.0067 267.7158 0134119 193.8228 165.9283 14.59246079 15425
